OBJECT_NAME,OBJECT_ID,EPOCH,MEAN_MOTION,ECCENTRICITY,INCLINATION,RA_OF_ASC_NODE,ARG_OF_PERICENTER,MEAN_ANOMALY,EPHEMERIS_TYPE,CLASSIFICATION_TYPE,NORAD_CAT_ID,ELEMENT_SET_NO,REV_AT_EPOCH,BSTAR,MEAN_MOTION_DOT,MEAN_MOTION_DDOT
H-2A R/B,2006-002B,2026-07-04T17:14:31.638336,15.18323252,.00501587,98.2587,343.1375,201.7855,158.1245,0,U,28932,999,11218,.71890062E-3,.15184E-3,0
RESURS-DK 1,2006-021A,2026-07-04T13:15:21.841632,15.13292377,.00067076,69.9337,294.6009,282.9755,77.0662,0,U,29228,999,10520,.18643362E-3,.322E-4,0
CZ-4B R/B,2006-046C,2026-07-04T14:11:11.486688,15.17921432,.00316139,97.5438,230.1446,219.4956,140.3974,0,U,29507,999,7777,.3505495E-3,.7135E-4,0
CZ-2C R/B,2007-010B,2026-07-04T17:49:09.320736,14.20280292,.00580646,98.4112,293.2360,314.7288,44.9171,0,U,31114,999,99633,.82433562E-4,.138E-5,0
COSMO-SKYMED 1,2007-023A,2026-07-04T23:31:12.570240,14.97189037,.00011273,97.8851,17.9862,84.0422,276.0927,0,U,31598,999,3245,.26277792E-3,.2978E-4,0
COSMOS 2428,2007-029A,2026-07-04T15:07:37.068960,14.12929556,.00071506,70.9380,317.8526,101.6390,258.5534,0,U,31792,999,98061,.90552675E-4,.121E-5,0
SL-16 R/B,2007-029B,2026-07-04T13:29:53.418912,14.14852190,.00023208,70.9763,286.7040,260.4889,110.4732,0,U,31793,999,98190,-.78694871E-4,-.2E-5,0
KORONAS-FOTON,2009-003A,2026-07-04T21:05:53.970432,15.46116868,.00125874,82.4302,153.7985,93.7739,266.4950,0,U,33504,999,96383,.38654644E-3,.19038E-3,0
CZ-2C R/B,2011-030B,2026-07-04T14:56:37.182912,14.81517665,.00515283,97.8663,140.6952,331.3224,202.2500,0,U,37731,999,80740,.22760097E-3,.1771E-4,0
H-2A R/B,2012-025E,2026-07-04T21:13:32.275776,14.95809618,.00422039,98.4838,162.4904,289.8009,69.8662,0,U,38341,999,76573,.38327819E-3,.4285E-4,0
SHIJIAN-16 (SJ-16),2013-057A,2026-07-04T22:25:34.193856,14.92647125,.00162254,74.9741,323.0673,189.3501,170.7388,0,U,39358,999,68899,.16804435E-3,.1707E-4,0
SL-4 R/B,2014-021B,2026-07-04T19:40:27.251904,15.42323605,.00902672,51.6058,124.3674,170.3652,189.9091,0,U,39679,999,67433,.40282984E-3,.20074E-3,0
ALOS-2,2014-029A,2026-07-03T18:38:40.142400,14.79475407,.0001643,97.9231,281.7034,89.0013,271.1387,0,U,39766,999,65403,.20504E-3,.148E-4,0
YAOGAN-29,2015-069A,2026-07-04T23:44:35.602944,14.83101586,.00015431,98.0017,214.6497,28.8790,331.2509,0,U,41038,999,57326,.88258354E-4,.665E-5,0
ASTRO-H (HITOMI),2016-012A,2026-07-04T17:50:29.603616,15.10599781,.00095656,31.0003,320.7997,69.4595,290.7069,0,U,41337,999,56994,.24502147E-3,.4247E-4,0
HXMT (HUIYAN),2017-034A,2026-07-04T23:01:51.937824,15.18621519,.00328168,43.0141,84.0703,258.4181,101.2983,0,U,42758,999,50036,.35017236E-3,.7248E-4,0
SAOCOM 1A,2018-076A,2026-07-04T23:00:41.908032,14.82164984,.00015758,97.8883,12.4486,80.4935,279.6456,0,U,43641,999,41873,.15559165E-3,.1187E-4,0
H-2A R/B,2018-084L,2026-07-04T14:37:38.836128,15.45870427,.00213133,98.8545,68.3133,339.4411,20.5974,0,U,43682,999,42381,.86126947E-3,.42251E-3,0
SAOCOM 1B,2020-059A,2026-07-04T23:45:39.786048,14.82151590,.00015529,97.8886,11.5749,79.9322,280.2066,0,U,46265,999,31612,.37635839E-4,.247E-5,0
CSS (TIANHE),2021-035A,2026-07-03T05:28:28.025760,15.57904594,.000288,41.4672,224.3616,262.1202,97.9309,0,U,48274,999,29567,.10678E-3,.7882E-4,0
COSMOS 2550,2021-056A,2026-07-04T22:56:55.978944,15.33752453,.00083999,67.1431,46.1556,273.1014,86.9179,0,U,48865,999,28144,.2433731E-3,.7804E-4,0
CZ-2C R/B,2022-058K,2026-07-03T23:57:25.197984,15.63075745,.00313408,50.1860,75.9700,336.5094,23.4447,0,U,52794,999,22827,.47352398E-3,.44827E-3,0
CZ-2C R/B,2022-132E,2026-07-04T11:03:36.808416,15.73754604,.00119723,97.2894,193.2816,26.6614,333.5263,0,U,54039,999,20866,.72863048E-3,.103724E-2,0
GSLV R/B,2022-138AN,2026-07-04T13:27:51.079968,14.97345531,.00242165,87.3812,127.1501,86.8647,273.5356,0,U,54149,999,20141,.36484534E-3,.4287E-4,0
XRISM,2023-137A,2026-07-04T13:06:56.336832,15.12620129,.00077765,31.0014,247.1450,139.1383,220.9840,0,U,57800,999,15549,.38160053E-3,.6937E-4,0
ACS3,2024-077B,2026-07-04T17:06:24.072768,13.95048038,.01108324,97.1711,100.6073,48.0887,312.9667,0,U,59588,999,11048,.59661644E-1,.85488E-3,0
SPACEMOBILE-003,2024-163A,2026-06-26T19:29:47.816736,15.20822722,.0005991,52.9744,265.1828,141.0621,219.0806,0,U,61045,999,9923,.90246E-4,.1689E-4,0
SPACEMOBILE-005,2024-163B,2026-07-04T19:30:52.365312,15.20856066,.00087601,52.9796,228.3249,166.8863,193.2360,0,U,61046,999,10044,.80770513E-3,.17795E-3,0
SPACEMOBILE-001,2024-163C,2026-07-04T10:01:03.647712,15.20841602,.00075516,52.9761,229.8615,159.3409,200.7892,0,U,61047,999,10038,.16129964E-3,.3281E-4,0
SPACEMOBILE-002,2024-163D,2026-07-04T09:38:09.434112,15.20870296,.00070709,52.9739,229.9760,160.7440,199.3822,0,U,61048,999,10038,.53270785E-3,.11615E-3,0
